start=new Date('2023-06-22T00:00:00.000Z').valueOf();
sats=[{"GP_ID":"234436282","ECCENTRICITY":"0.00008450","FILE":"3939133","MEAN_MOTION":"15.08839587","CENTER_NAME":"EARTH","DECAY_DATE":null,"COUNTRY_CODE":"US","PERIAPSIS":"539.162","TIME_SYSTEM":"UTC","REF_FRAME":"TEME","SITE":"AFETR","TLE_LINE1":"1 53259U 22086T   23172.43331176 -.00000966  00000-0 -42610-4 0  9995","RA_OF_ASC_NODE":"328.1777","ARG_OF_PERICENTER":"71.8121","RCS_SIZE":"LARGE","PERIOD":"95.438","NORAD_CAT_ID":"53259","APOAPSIS":"540.331","INCLINATION":"53.2174","REV_AT_EPOCH":"5127","MEAN_ELEMENT_THEORY":"SGP4","BSTAR":"-0.00004261000000","EPHEMERIS_TYPE":"0","EPOCH":"2023-06-21T10:23:58.136064","MEAN_ANOMALY":"288.2963","CLASSIFICATION_TYPE":"U","ELEMENT_SET_NO":"999","SEMIMAJOR_AXIS":"6917.882","OBJECT_TYPE":"PAYLOAD","OBJECT_NAME":"STARLINK-4140","OBJECT_ID":"2022-086T","MEAN_MOTION_DDOT":"0.0000000000000","MEAN_MOTION_DOT":"-0.00000966","TLE_LINE2":"2 53259  53.2174 328.1777 0000845  71.8121 288.2963 15.08839587 51277","LAUNCH_DATE":"2022-07-24"},{"OBJECT_ID":"2022-086U","OBJECT_NAME":"STARLINK-4136","OBJECT_TYPE":"PAYLOAD","SEMIMAJOR_AXIS":"6917.859","LAUNCH_DATE":"2022-07-24","TLE_LINE2":"2 53260  53.2180 327.1633 0001029  79.3479 280.7629 15.08846997 51134","MEAN_MOTION_DOT":"-0.00000536","MEAN_MOTION_DDOT":"0.0000000000000","EPHEMERIS_TYPE":"0","BSTAR":"-0.00001562300000","MEAN_ELEMENT_THEORY":"SGP4","REV_AT_EPOCH":"5113","INCLINATION":"53.2180","ELEMENT_SET_NO":"999","CLASSIFICATION_TYPE":"U","MEAN_ANOMALY":"280.7629","EPOCH":"2023-06-21T17:43:51.835296","NORAD_CAT_ID":"53260","ARG_OF_PERICENTER":"79.3479","RCS_SIZE":"LARGE","PERIOD":"95.437","RA_OF_ASC_NODE":"327.1633","TLE_LINE1":"1 53260U 22086U   23172.73879439 -.00000536  00000-0 -15623-4 0  9996","SITE":"AFETR","REF_FRAME":"TEME","APOAPSIS":"540.436","PERIAPSIS":"539.012","COUNTRY_CODE":"US","DECAY_DATE":null,"CENTER_NAME":"EARTH","MEAN_MOTION":"15.08846997","ECCENTRICITY":"0.00010290","FILE":"3939288","GP_ID":"234442927","TIME_SYSTEM":"UTC"},{"OBJECT_NAME":"STARLINK-4062","OBJECT_ID":"2022-086V","OBJECT_TYPE":"PAYLOAD","SEMIMAJOR_AXIS":"6917.885","LAUNCH_DATE":"2022-07-24","TLE_LINE2":"2 53261  53.2175 328.4109 0000944  97.5973 262.5127 15.08838337 51272","MEAN_MOTION_DOT":"0.00001958","MEAN_MOTION_DDOT":"0.0000000000000","EPHEMERIS_TYPE":"0","BSTAR":"0.00014104000000","MEAN_ELEMENT_THEORY":"SGP4","REV_AT_EPOCH":"5127","INCLINATION":"53.2175","CLASSIFICATION_TYPE":"U","MEAN_ANOMALY":"262.5127","ELEMENT_SET_NO":"999","EPOCH":"2023-06-21T11:01:07.444416","NORAD_CAT_ID":"53261","RCS_SIZE":"LARGE","ARG_OF_PERICENTER":"97.5973","PERIOD":"95.438","RA_OF_ASC_NODE":"328.4109","SITE":"AFETR","REF_FRAME":"TEME","TLE_LINE1":"1 53261U 22086V   23172.45911394  .00001958  00000-0  14104-3 0  9992","APOAPSIS":"540.404","COUNTRY_CODE":"US","PERIAPSIS":"539.097","CENTER_NAME":"EARTH","DECAY_DATE":null,"MEAN_MOTION":"15.08838337","GP_ID":"234435283","ECCENTRICITY":"0.00009440","FILE":"3939133","TIME_SYSTEM":"UTC"},{"OBJECT_NAME":"STARLINK-4085","OBJECT_ID":"2022-086W","SEMIMAJOR_AXIS":"6917.871","OBJECT_TYPE":"PAYLOAD","TLE_LINE2":"2 53262  53.2174 329.8688 0000934  41.2031 318.9031 15.08843160 51224","LAUNCH_DATE":"2022-07-24","MEAN_MOTION_DDOT":"0.0000000000000","MEAN_MOTION_DOT":"0.00001747","EPHEMERIS_TYPE":"0","BSTAR":"0.00012781000000","REV_AT_EPOCH":"5122","INCLINATION":"53.2174","MEAN_ELEMENT_THEORY":"SGP4","EPOCH":"2023-06-21T03:14:47.535360","MEAN_ANOMALY":"318.9031","CLASSIFICATION_TYPE":"U","ELEMENT_SET_NO":"999","RCS_SIZE":"LARGE","ARG_OF_PERICENTER":"41.2031","PERIOD":"95.437","NORAD_CAT_ID":"53262","REF_FRAME":"TEME","SITE":"AFETR","TLE_LINE1":"1 53262U 22086W   23172.13527240  .00001747  00000-0  12781-3 0  9996","RA_OF_ASC_NODE":"329.8688","APOAPSIS":"540.382","CENTER_NAME":"EARTH","DECAY_DATE":null,"COUNTRY_CODE":"US","PERIAPSIS":"539.090","GP_ID":"234435535","FILE":"3939133","ECCENTRICITY":"0.00009340","MEAN_MOTION":"15.08843160","TIME_SYSTEM":"UTC"},{"MEAN_MOTION_DOT":"0.00001111","MEAN_MOTION_DDOT":"0.0000000000000","TLE_LINE2":"2 53263  53.2188 328.4308 0001134  92.6584 267.4538 15.08842027 51276","LAUNCH_DATE":"2022-07-24","SEMIMAJOR_AXIS":"6917.874","OBJECT_TYPE":"PAYLOAD","OBJECT_NAME":"STARLINK-4130","OBJECT_ID":"2022-086X","EPOCH":"2023-06-21T10:55:49.482912","MEAN_ANOMALY":"267.4538","CLASSIFICATION_TYPE":"U","ELEMENT_SET_NO":"999","REV_AT_EPOCH":"5127","INCLINATION":"53.2188","MEAN_ELEMENT_THEORY":"SGP4","BSTAR":"0.00008785400000","EPHEMERIS_TYPE":"0","APOAPSIS":"540.524","SITE":"AFETR","REF_FRAME":"TEME","TLE_LINE1":"1 53263U 22086X   23172.45543383  .00001111  00000-0  87854-4 0  9997","RA_OF_ASC_NODE":"328.4308","ARG_OF_PERICENTER":"92.6584","RCS_SIZE":"LARGE","PERIOD":"95.437","NORAD_CAT_ID":"53263","TIME_SYSTEM":"UTC","GP_ID":"234435783","FILE":"3939133","ECCENTRICITY":"0.00011340","MEAN_MOTION":"15.08842027","CENTER_NAME":"EARTH","DECAY_DATE":null,"COUNTRY_CODE":"US","PERIAPSIS":"538.955"},{"OBJECT_ID":"2022-086Y","OBJECT_NAME":"STARLINK-3950","SEMIMAJOR_AXIS":"6917.880","OBJECT_TYPE":"PAYLOAD","TLE_LINE2":"2 53264  53.2174 327.8030 0000970  95.8239 264.2864 15.08839964 51291","LAUNCH_DATE":"2022-07-24","MEAN_MOTION_DOT":"-0.00000514","MEAN_MOTION_DDOT":"0.0000000000000","EPHEMERIS_TYPE":"0","BSTAR":"-0.00001421800000","REV_AT_EPOCH":"5129","INCLINATION":"53.2174","MEAN_ELEMENT_THEORY":"SGP4","EPOCH":"2023-06-21T14:17:11.631264","ELEMENT_SET_NO":"999","CLASSIFICATION_TYPE":"U","MEAN_ANOMALY":"264.2864","RCS_SIZE":"LARGE","ARG_OF_PERICENTER":"95.8239","PERIOD":"95.438","NORAD_CAT_ID":"53264","TLE_LINE1":"1 53264U 22086Y   23172.59527351 -.00000514  00000-0 -14218-4 0  9992","SITE":"AFETR","REF_FRAME":"TEME","RA_OF_ASC_NODE":"327.8030","APOAPSIS":"540.417","DECAY_DATE":null,"CENTER_NAME":"EARTH","COUNTRY_CODE":"US","PERIAPSIS":"539.074","ECCENTRICITY":"0.00009700","FILE":"3939133","GP_ID":"234435033","MEAN_MOTION":"15.08839964","TIME_SYSTEM":"UTC"},{"TIME_SYSTEM":"UTC","CENTER_NAME":"EARTH","DECAY_DATE":null,"PERIAPSIS":"539.110","COUNTRY_CODE":"US","GP_ID":"234442930","FILE":"3939288","ECCENTRICITY":"0.00008590","MEAN_MOTION":"15.08853494","APOAPSIS":"540.298","RCS_SIZE":"LARGE","ARG_OF_PERICENTER":"81.7082","PERIOD":"95.437","NORAD_CAT_ID":"53265","SITE":"AFETR","REF_FRAME":"TEME","TLE_LINE1":"1 53265U 22086Z   23172.71303157  .00012921  00000-0  82813-3 0  9991","RA_OF_ASC_NODE":"327.2788","EPOCH":"2023-06-21T17:06:45.927648","MEAN_ANOMALY":"278.4008","CLASSIFICATION_TYPE":"U","ELEMENT_SET_NO":"999","BSTAR":"0.00082813000000","EPHEMERIS_TYPE":"0","REV_AT_EPOCH":"5113","INCLINATION":"53.2176","MEAN_ELEMENT_THEORY":"SGP4","TLE_LINE2":"2 53265  53.2176 327.2788 0000859  81.7082 278.4008 15.08853494 51138","LAUNCH_DATE":"2022-07-24","MEAN_MOTION_DOT":"0.00012921","MEAN_MOTION_DDOT":"0.0000000000000","OBJECT_NAME":"STARLINK-4097","OBJECT_ID":"2022-086Z","SEMIMAJOR_AXIS":"6917.839","OBJECT_TYPE":"PAYLOAD"},{"PERIAPSIS":"539.113","COUNTRY_CODE":"US","CENTER_NAME":"EARTH","DECAY_DATE":null,"MEAN_MOTION":"15.08832865","GP_ID":"234442604","ECCENTRICITY":"0.00009460","FILE":"3939291","TIME_SYSTEM":"UTC","NORAD_CAT_ID":"53266","ARG_OF_PERICENTER":"87.1835","RCS_SIZE":"LARGE","PERIOD":"95.438","RA_OF_ASC_NODE":"327.2605","SITE":"AFETR","REF_FRAME":"TEME","TLE_LINE1":"1 53266U 22086AA  23172.71670810 -.00004604  00000-0 -27144-3 0  9992","APOAPSIS":"540.422","EPHEMERIS_TYPE":"0","BSTAR":"-0.00027144000000","MEAN_ELEMENT_THEORY":"SGP4","INCLINATION":"53.2172","REV_AT_EPOCH":"5113","CLASSIFICATION_TYPE":"U","MEAN_ANOMALY":"272.9265","ELEMENT_SET_NO":"999","EPOCH":"2023-06-21T17:12:03.579840","OBJECT_NAME":"STARLINK-4058","OBJECT_ID":"2022-086AA","OBJECT_TYPE":"PAYLOAD","SEMIMAJOR_AXIS":"6917.902","LAUNCH_DATE":"2022-07-24","TLE_LINE2":"2 53266  53.2172 327.2605 0000946  87.1835 272.9265 15.08832865 51139","MEAN_MOTION_DDOT":"0.0000000000000","MEAN_MOTION_DOT":"-0.00004604"},{"OBJECT_TYPE":"PAYLOAD","SEMIMAJOR_AXIS":"6917.873","OBJECT_ID":"2022-086AB","OBJECT_NAME":"STARLINK-4060","MEAN_MOTION_DOT":"0.00002120","MEAN_MOTION_DDOT":"0.0000000000000","LAUNCH_DATE":"2022-07-24","TLE_LINE2":"2 53267  53.2170 327.9064 0000641  78.0969 282.0095 15.08842302 51290","MEAN_ELEMENT_THEORY":"SGP4","REV_AT_EPOCH":"5129","INCLINATION":"53.2170","EPHEMERIS_TYPE":"0","BSTAR":"0.00015119000000","ELEMENT_SET_NO":"999","CLASSIFICATION_TYPE":"U","MEAN_ANOMALY":"282.0095","EPOCH":"2023-06-21T13:45:24.114528","RA_OF_ASC_NODE":"327.9064","TLE_LINE1":"1 53267U 22086AB  23172.57319577  .00002120  00000-0  15119-3 0  9995","REF_FRAME":"TEME","SITE":"AFETR","NORAD_CAT_ID":"53267","ARG_OF_PERICENTER":"78.0969","RCS_SIZE":"LARGE","PERIOD":"95.437","APOAPSIS":"540.182","MEAN_MOTION":"15.08842302","FILE":"3939133","ECCENTRICITY":"0.00006410","GP_ID":"234436283","COUNTRY_CODE":"US","PERIAPSIS":"539.295","DECAY_DATE":null,"CENTER_NAME":"EARTH","TIME_SYSTEM":"UTC"},{"CLASSIFICATION_TYPE":"U","MEAN_ANOMALY":"302.4733","ELEMENT_SET_NO":"999","EPOCH":"2023-06-21T17:01:28.314336","BSTAR":"0.00047182000000","EPHEMERIS_TYPE":"0","MEAN_ELEMENT_THEORY":"SGP4","INCLINATION":"53.2168","REV_AT_EPOCH":"5113","LAUNCH_DATE":"2022-07-24","TLE_LINE2":"2 53268  53.2168 327.2919 0000933  57.6350 302.4733 15.08838374 51134","MEAN_MOTION_DDOT":"0.0000000000000","MEAN_MOTION_DOT":"0.00007229","OBJECT_NAME":"STARLINK-4109","OBJECT_ID":"2022-086AC","OBJECT_TYPE":"PAYLOAD","SEMIMAJOR_AXIS":"6917.885","TIME_SYSTEM":"UTC","PERIAPSIS":"539.105","COUNTRY_CODE":"US","CENTER_NAME":"EARTH","DECAY_DATE":null,"MEAN_MOTION":"15.08838374","GP_ID":"234442940","ECCENTRICITY":"0.00009330","FILE":"3939303","APOAPSIS":"540.396","NORAD_CAT_ID":"53268","RCS_SIZE":"LARGE","PERIOD":"95.438","ARG_OF_PERICENTER":"57.6350","RA_OF_ASC_NODE":"327.2919","SITE":"AFETR","REF_FRAME":"TEME","TLE_LINE1":"1 53268U 22086AC  23172.70935549  .00007229  00000-0  47182-3 0  9994"}];
